STARLINK-3161           
1 49422U 21104Q   26068.72764307 -.00000085  00000+0  12727-4 0  9993
2 49422  53.2168 229.2684 0001219  97.5289 262.5841 15.08835383238627
MUSAT-2                 
1 59099U 24043B   26068.91945897  .00010059  00000+0  67214-3 0  9996
2 59099  97.8438 205.4399 0006495 314.3478  45.7216 15.07177436110131
